$$SOE
2461302.500000000, A.D. 2026-Sep-19 00:00:00.0000, -5.570958852009505E+08, -3.388489929638192E+08, 1.480872828050720E+08,
2461309.500000000, A.D. 2026-Sep-26 00:00:00.0000, -5.515095001152059E+08, -3.445293923388721E+08, 1.486163061983610E+08,
2461316.500000000, A.D. 2026-Oct-03 00:00:00.0000, -5.458328824835973E+08, -3.501534429293379E+08, 1.491210146229623E+08,
2461323.500000000, A.D. 2026-Oct-10 00:00:00.0000, -5.400663040333149E+08, -3.557198050804681E+08, 1.496011458823943E+08,
2461330.500000000, A.D. 2026-Oct-17 00:00:00.0000, -5.342100513932984E+08, -3.612271265244998E+08, 1.500564369288078E+08,
2461337.500000000, A.D. 2026-Oct-24 00:00:00.0000, -5.282644266434603E+08, -3.666740422835476E+08, 1.504866238971724E+08,
2461344.500000000, A.D. 2026-Oct-31 00:00:00.0000, -5.222297477906920E+08, -3.720591747407916E+08, 1.508914421206394E+08,
2461351.500000000, A.D. 2026-Nov-07 00:00:00.0000, -5.161063488329538E+08, -3.773811338063012E+08, 1.512706261023464E+08,
2461358.500000000, A.D. 2026-Nov-14 00:00:00.0000, -5.098945792108680E+08, -3.826385162904773E+08, 1.516239094980900E+08,
2461365.500000000, A.D. 2026-Nov-21 00:00:00.0000, -5.035948044587189E+08, -3.878299038036792E+08, 1.519510253320633E+08,
2461372.500000000, A.D. 2026-Nov-28 00:00:00.0000, -4.972074090531430E+08, -3.929538621908309E+08, 1.522517062917587E+08,
2461379.500000000, A.D. 2026-Dec-05 00:00:00.0000, -4.907327978405766E+08, -3.980089431582650E+08, 1.525256847170266E+08,
2461386.500000000, A.D. 2026-Dec-12 00:00:00.0000, -4.841713958791649E+08, -4.029936849823935E+08, 1.527726925229900E+08,
2461393.500000000, A.D. 2026-Dec-19 00:00:00.0000, -4.775236485826472E+08, -4.079066122941835E+08, 1.529924612308181E+08,
2461400.500000000, A.D. 2026-Dec-26 00:00:00.0000, -4.707900223087800E+08, -4.127462358081536E+08, 1.531847220488027E+08,
2461407.500000000, A.D. 2027-Jan-02 00:00:00.0000, -4.639710051169611E+08, -4.175110521878080E+08, 1.533492059631944E+08,
2461414.500000000, A.D. 2027-Jan-09 00:00:00.0000, -4.570671075791050E+08, -4.221995440284938E+08, 1.534856438301194E+08,
2461421.500000000, A.D. 2027-Jan-16 00:00:00.0000, -4.500788636099375E+08, -4.268101799500460E+08, 1.535937664664482E+08,
2461428.500000000, A.D. 2027-Jan-23 00:00:00.0000, -4.430068312725953E+08, -4.313414148400081E+08, 1.536733047325034E+08,
2461435.500000000, A.D. 2027-Jan-30 00:00:00.0000, -4.358515933738707E+08, -4.357916902963178E+08, 1.537239895857743E+08,
2461442.500000000, A.D. 2027-Feb-06 00:00:00.0000, -4.286137574264521E+08, -4.401594349304541E+08, 1.537455520946797E+08,
2461449.500000000, A.D. 2027-Feb-13 00:00:00.0000, -4.212939554403407E+08, -4.444430633122001E+08, 1.537377235543527E+08,
2461456.500000000, A.D. 2027-Feb-20 00:00:00.0000, -4.138928459086528E+08, -4.486409743478041E+08, 1.537002358565131E+08,
2461463.500000000, A.D. 2027-Feb-27 00:00:00.0000, -4.064111165927919E+08, -4.527515523063371E+08, 1.536328217227030E+08,
2461470.500000000, A.D. 2027-Mar-06 00:00:00.0000, -3.988494850896953E+08, -4.567731685729692E+08, 1.535352146812917E+08,
2461477.500000000, A.D. 2027-Mar-13 00:00:00.0000, -3.912086987817702E+08, -4.607041820808010E+08, 1.534071491025472E+08,
2461484.500000000, A.D. 2027-Mar-20 00:00:00.0000, -3.834895352989063E+08, -4.645429392571048E+08, 1.532483603271522E+08,
2461491.500000000, A.D. 2027-Mar-27 00:00:00.0000, -3.756928032904782E+08, -4.682877740344945E+08, 1.530585848249334E+08,
2461498.500000000, A.D. 2027-Apr-03 00:00:00.0000, -3.678193433045604E+08, -4.719370079765531E+08, 1.528375603616408E+08,
2461505.500000000, A.D. 2027-Apr-10 00:00:00.0000, -3.598700287134172E+08, -4.754889504966468E+08, 1.525850261705084E+08,
2461512.500000000, A.D. 2027-Apr-17 00:00:00.0000, -3.518457666635238E+08, -4.789418991858839E+08, 1.523007231258722E+08,
2461519.500000000, A.D. 2027-Apr-24 00:00:00.0000, -3.437474989711304E+08, -4.822941403139006E+08, 1.519843939069129E+08,
2461526.500000000, A.D. 2027-May-01 00:00:00.0000, -3.355762026637948E+08, -4.855439494761337E+08, 1.516357831266662E+08,
2461533.500000000, A.D. 2027-May-08 00:00:00.0000, -3.273328898603737E+08, -4.886895916406085E+08, 1.512546374595620E+08,
2461540.500000000, A.D. 2027-May-15 00:00:00.0000, -3.190186084859644E+08, -4.917293196421528E+08, 1.508407059828770E+08,
2461547.500000000, A.D. 2027-May-22 00:00:00.0000, -3.106344453849075E+08, -4.946613737171776E+08, 1.503937406638604E+08,
2461554.500000000, A.D. 2027-May-29 00:00:00.0000, -3.021815284752368E+08, -4.974839835494341E+08, 1.499134965651409E+08,
2461561.500000000, A.D. 2027-Jun-05 00:00:00.0000, -2.936610270593703E+08, -5.001953696972535E+08, 1.493997319438021E+08,
2461568.500000000, A.D. 2027-Jun-12 00:00:00.0000, -2.850741522980314E+08, -5.027937439723960E+08, 1.488522084640282E+08,
2461575.500000000, A.D. 2027-Jun-19 00:00:00.0000, -2.764221581775882E+08, -5.052773097074265E+08, 1.482706914776886E+08,
2461582.500000000, A.D. 2027-Jun-26 00:00:00.0000, -2.677063426903833E+08, -5.076442621750677E+08, 1.476549503263597E+08,
2461589.500000000, A.D. 2027-Jul-03 00:00:00.0000, -2.589280490948554E+08, -5.098927891536053E+08, 1.470047586539377E+08,
2461596.500000000, A.D. 2027-Jul-10 00:00:00.0000, -2.500886672175469E+08, -5.120210716321584E+08, 1.463198947278773E+08,
2461603.500000000, A.D. 2027-Jul-17 00:00:00.0000, -2.411896347595746E+08, -5.140272846972477E+08, 1.456001417633012E+08,
2461610.500000000, A.D. 2027-Jul-24 00:00:00.0000, -2.322324384499821E+08, -5.159095986660225E+08, 1.448452882312233E+08,
2461617.500000000, A.D. 2027-Jul-31 00:00:00.0000, -2.232186146332529E+08, -5.176661802331544E+08, 1.440551281330602E+08,
2461624.500000000, A.D. 2027-Aug-07 00:00:00.0000, -2.141497494902266E+08, -5.192951924820765E+08, 1.432294613544878E+08,
2461631.500000000, A.D. 2027-Aug-14 00:00:00.0000, -2.050274811916697E+08, -5.207947940161002E+08, 1.423680942892690E+08,
2461638.500000000, A.D. 2027-Aug-21 00:00:00.0000, -1.958535033639234E+08, -5.221631405760739E+08, 1.414708404015983E+08,
2461645.500000000, A.D. 2027-Aug-28 00:00:00.0000, -1.866295664332359E+08, -5.233983879444989E+08, 1.405375205110234E+08,
2461652.500000000, A.D. 2027-Sep-04 00:00:00.0000, -1.773574780277773E+08, -5.244986936368572E+08, 1.395679631131611E+08,
2461659.500000000, A.D. 2027-Sep-11 00:00:00.0000, -1.680391038302280E+08, -5.254622180441118E+08, 1.385620048102493E+08,
2461666.500000000, A.D. 2027-Sep-18 00:00:00.0000, -1.586763687449483E+08, -5.262871256790328E+08, 1.375194907861263E+08,
2461673.500000000, A.D. 2027-Sep-25 00:00:00.0000, -1.492712581477372E+08, -5.269715866064075E+08, 1.364402752981913E+08,
2461680.500000000, A.D. 2027-Oct-02 00:00:00.0000, -1.398258191397337E+08, -5.275137780320084E+08, 1.353242221816200E+08,
2461687.500000000, A.D. 2027-Oct-09 00:00:00.0000, -1.303421617794185E+08, -5.279118860572546E+08, 1.341712053633555E+08,
2461694.500000000, A.D. 2027-Oct-16 00:00:00.0000, -1.208224602258265E+08, -5.281641076567286E+08, 1.329811093755367E+08,
2461701.500000000, A.D. 2027-Oct-23 00:00:00.0000, -1.112689535291460E+08, -5.282686528862546E+08, 1.317538298438921E+08,
2461708.500000000, A.D. 2027-Oct-30 00:00:00.0000, -1.016839456896577E+08, -5.282237467129160E+08, 1.304892739662598E+08,
2461715.500000000, A.D. 2027-Nov-06 00:00:00.0000, -9.206980614357963E+07, -5.280276293402587E+08, 1.291873611795873E+08,
2461722.500000000, A.D. 2027-Nov-13 00:00:00.0000, -8.242897265556453E+07, -5.276785571061316E+08, 1.278480240271139E+08,
2461729.500000000, A.D. 2027-Nov-20 00:00:00.0000, -7.276395370959109E+07, -5.271748061409937E+08, 1.264712087805306E+08,
2461736.500000000, A.D. 2027-Nov-27 00:00:00.0000, -6.307732877446786E+07, -5.265146758250928E+08, 1.250568759111507E+08,
2461743.500000000, A.D. 2027-Dec-04 00:00:00.0000, -5.337174846168373E+07, -5.256964911332119E+08, 1.236050006705307E+08,
2461750.500000000, A.D. 2027-Dec-11 00:00:00.0000, -4.364993512028184E+07, -5.247186048328312E+08, 1.221155737521239E+08,
2461757.500000000, A.D. 2027-Dec-18 00:00:00.0000, -3.391468358753322E+07, -5.235793998760426E+08, 1.205886019806080E+08,
2461764.500000000, A.D. 2027-Dec-25 00:00:00.0000, -2.416886193667723E+07, -5.222772919880744E+08, 1.190241090140779E+08,
2461771.500000000, A.D. 2028-Jan-01 00:00:00.0000, -1.441541217298183E+07, -5.208107324381596E+08, 1.174221360556346E+08,
$$EOE